{
    "links": {
        "self": "http://www.neowsapp.com/rest/v1/neo/3471515?api_key=iIulBulltgU6a56xZRHN4H3l9WmuAYTsLGpBGhQ2"
    },
    "id": "3471515",
    "neo_reference_id": "3471515",
    "name": "(2009 TF8)",
    "designation": "2009 TF8",
    "nasa_jpl_url": "http://ssd.jpl.nasa.gov/sbdb.cgi?sstr=3471515",
    "absolute_magnitude_h": 26.5,
    "estimated_diameter": {
        "kilometers": {
            "estimated_diameter_min": 0.0133215567,
            "estimated_diameter_max": 0.0297879063
        },
        "meters": {
            "estimated_diameter_min": 13.3215566698,
            "estimated_diameter_max": 29.7879062798
        },
        "miles": {
            "estimated_diameter_min": 0.008277629,
            "estimated_diameter_max": 0.0185093411
        },
        "feet": {
            "estimated_diameter_min": 43.7058959846,
            "estimated_diameter_max": 97.7293544391
        }
    },
    "is_potentially_hazardous_asteroid": false,
    "close_approach_data": [
        {
            "close_approach_date": "1934-09-15",
            "close_approach_date_full": "1934-Sep-15 11:44",
            "epoch_date_close_approach": -1113826560000,
            "relative_velocity": {
                "kilometers_per_second": "16.3749693533",
                "kilometers_per_hour": "58949.8896718292",
                "miles_per_hour": "36629.1689463652"
            },
            "miss_distance": {
                "astronomical": "0.3287370065",
                "lunar": "127.8786955285",
                "kilometers": "49178355.962576155",
                "miles": "30558013.401234739"
            },
            "orbiting_body": "Earth"
        },
        {
            "close_approach_date": "2009-10-17",
            "close_approach_date_full": "2009-Oct-17 06:22",
            "epoch_date_close_approach": 1255760520000,
            "relative_velocity": {
                "kilometers_per_second": "6.973270692",
                "kilometers_per_hour": "25103.7744912132",
                "miles_per_hour": "15598.509210943"
            },
            "miss_distance": {
                "astronomical": "0.0195351349",
                "lunar": "7.5991674761",
                "kilometers": "2922414.571202663",
                "miles": "1815904.2099482294"
            },
            "orbiting_body": "Earth"
        },
        {
            "close_approach_date": "2012-01-07",
            "close_approach_date_full": "2012-Jan-07 01:12",
            "epoch_date_close_approach": 1325898720000,
            "relative_velocity": {
                "kilometers_per_second": "16.0709781081",
                "kilometers_per_hour": "57855.521189155",
                "miles_per_hour": "35949.1709300058"
            },
            "miss_distance": {
                "astronomical": "0.3282370715",
                "lunar": "127.6842208135",
                "kilometers": "49103566.751437705",
                "miles": "30511541.540362129"
            },
            "orbiting_body": "Earth"
        },
        {
            "close_approach_date": "2068-01-16",
            "close_approach_date_full": "2068-Jan-16 17:55",
            "epoch_date_close_approach": 3093962100000,
            "relative_velocity": {
                "kilometers_per_second": "21.0356585326",
                "kilometers_per_hour": "75728.370717513",
                "miles_per_hour": "47054.664571668"
            },
            "miss_distance": {
                "astronomical": "0.4913870827",
                "lunar": "191.1495751703",
                "kilometers": "73510460.917433849",
                "miles": "45677282.3303671562"
            },
            "orbiting_body": "Earth"
        }
    ],
    "orbital_data": {
        "orbit_id": "7",
        "orbit_determination_date": "2017-04-06 08:59:39",
        "first_observation_date": "2009-10-14",
        "last_observation_date": "2009-10-19",
        "data_arc_in_days": 5,
        "observations_used": 30,
        "orbit_uncertainty": "8",
        "minimum_orbit_intersection": ".0115148",
        "jupiter_tisserand_invariant": "4.210",
        "epoch_osculation": "2455120.5",
        "eccentricity": ".4013233629993332",
        "semi_major_axis": "1.632704252016666",
        "inclination": "4.34897549578531",
        "ascending_node_longitude": "201.4385841904713",
        "orbital_period": "762.0083188008322",
        "perihelion_distance": ".9774618908140271",
        "perihelion_argument": "210.9924363228227",
        "aphelion_distance": "2.287946613219306",
        "perihelion_time": "2455145.334091700101",
        "mean_anomaly": "348.2674863364935",
        "mean_motion": ".4724357872713645",
        "equinox": "J2000",
        "orbit_class": {
            "orbit_class_type": "APO",
            "orbit_class_description": "Near-Earth asteroid orbits which cross the Earth’s orbit similar to that of 1862 Apollo",
            "orbit_class_range": "a (semi-major axis) > 1.0 AU; q (perihelion) < 1.017 AU"
        }
    },
    "is_sentry_object": false
}